[{"OBJECT_NAME":"STARLINK-33551","OBJECT_ID":"2024-220Y","EPOCH":"2026-03-09T09:09:20.927808","MEAN_MOTION":15.27600504,"ECCENTRICITY":0.00022463,"INCLINATION":43.0034,"RA_OF_ASC_NODE":207.3225,"ARG_OF_PERICENTER":277.8737,"MEAN_ANOMALY":82.186,"EPHEMERIS_TYPE":0,"CLASSIFICATION_TYPE":"U","NORAD_CAT_ID":62110,"ELEMENT_SET_NO":999,"REV_AT_EPOCH":7314,"BSTAR":0.0015658234,"MEAN_MOTION_DOT":0.00043106,"MEAN_MOTION_DDOT":0},{"OBJECT_NAME":"TOMORROW-S3","OBJECT_ID":"2024-247R","EPOCH":"2026-03-09T11:56:51.820800","MEAN_MOTION":15.27672122,"ECCENTRICITY":3.967e-5,"INCLINATION":44.9999,"RA_OF_ASC_NODE":117.9871,"ARG_OF_PERICENTER":320.9462,"MEAN_ANOMALY":39.1392,"EPHEMERIS_TYPE":0,"CLASSIFICATION_TYPE":"U","NORAD_CAT_ID":62392,"ELEMENT_SET_NO":999,"REV_AT_EPOCH":6770,"BSTAR":0.00028857954,"MEAN_MOTION_DOT":7.664e-5,"MEAN_MOTION_DDOT":0}]
