STARLINK-33551          
1 62110U 24220Y   26068.38149222  .00043106  00000+0  15658-2 0  9993
2 62110  43.0034 207.3225 0002246 277.8737  82.1860 15.27600504 73142
TOMORROW-S3             
1 62392U 24247R   26068.49782200  .00007664  00000+0  28858-3 0  9991
2 62392  44.9999 117.9871 0000396 320.9462  39.1392 15.27672122 67708
